[{"OBJECT_NAME":"ONEWEB-0057","OBJECT_ID":"2020-008AF","EPOCH":"2025-12-28T04:23:45.429216","MEAN_MOTION":13.10373861,"ECCENTRICITY":0.00019798,"INCLINATION":87.8796,"RA_OF_ASC_NODE":70.364,"ARG_OF_PERICENTER":106.3123,"MEAN_ANOMALY":253.8222,"EPHEMERIS_TYPE":0,"CLASSIFICATION_TYPE":"U","NORAD_CAT_ID":45160,"ELEMENT_SET_NO":999,"REV_AT_EPOCH":28595,"BSTAR":0.0018777587,"MEAN_MOTION_DOT":6.68e-6,"MEAN_MOTION_DDOT":0},{"OBJECT_NAME":"ONEWEB-0058","OBJECT_ID":"2020-008AG","EPOCH":"2025-12-28T05:54:35.560224","MEAN_MOTION":13.10375503,"ECCENTRICITY":0.00015651,"INCLINATION":87.8797,"RA_OF_ASC_NODE":70.3617,"ARG_OF_PERICENTER":95.7788,"MEAN_ANOMALY":264.3518,"EPHEMERIS_TYPE":0,"CLASSIFICATION_TYPE":"U","NORAD_CAT_ID":45161,"ELEMENT_SET_NO":999,"REV_AT_EPOCH":28603,"BSTAR":0.000506304,"MEAN_MOTION_DOT":1.89e-6,"MEAN_MOTION_DDOT":0},{"OBJECT_NAME":"ONEWEB-0059","OBJECT_ID":"2020-008AH","EPOCH":"2025-12-28T05:49:35.234688","MEAN_MOTION":13.1037825,"ECCENTRICITY":0.00017503,"INCLINATION":87.8799,"RA_OF_ASC_NODE":70.3627,"ARG_OF_PERICENTER":99.2337,"MEAN_ANOMALY":260.8988,"EPHEMERIS_TYPE":0,"CLASSIFICATION_TYPE":"U","NORAD_CAT_ID":45162,"ELEMENT_SET_NO":999,"REV_AT_EPOCH":28593,"BSTAR":0.00014847082,"MEAN_MOTION_DOT":6.4e-7,"MEAN_MOTION_DDOT":0},{"OBJECT_NAME":"ONEWEB-0062","OBJECT_ID":"2020-008AJ","EPOCH":"2025-12-28T04:36:42.359616","MEAN_MOTION":13.10370355,"ECCENTRICITY":0.00014208,"INCLINATION":87.8799,"RA_OF_ASC_NODE":70.3496,"ARG_OF_PERICENTER":93.4944,"MEAN_ANOMALY":266.6346,"EPHEMERIS_TYPE":0,"CLASSIFICATION_TYPE":"U","NORAD_CAT_ID":45163,"ELEMENT_SET_NO":999,"REV_AT_EPOCH":28579,"BSTAR":0.0016078375,"MEAN_MOTION_DOT":5.74e-6,"MEAN_MOTION_DDOT":0},{"OBJECT_NAME":"ONEWEB-0065","OBJECT_ID":"2020-008AK","EPOCH":"2025-12-28T05:20:42.041184","MEAN_MOTION":13.10375291,"ECCENTRICITY":0.000197,"INCLINATION":87.8796,"RA_OF_ASC_NODE":70.3585,"ARG_OF_PERICENTER":113.1786,"MEAN_ANOMALY":246.9549,"EPHEMERIS_TYPE":0,"CLASSIFICATION_TYPE":"U","NORAD_CAT_ID":45164,"ELEMENT_SET_NO":999,"REV_AT_EPOCH":28549,"BSTAR":-0.0017636498,"MEAN_MOTION_DOT":-6.03e-6,"MEAN_MOTION_DDOT":0},{"OBJECT_NAME":"ONEWEB-0066","OBJECT_ID":"2020-020A","EPOCH":"2025-12-28T03:58:31.009152","MEAN_MOTION":13.11415988,"ECCENTRICITY":0.00019775,"INCLINATION":87.8846,"RA_OF_ASC_NODE":55.1169,"ARG_OF_PERICENTER":97.1016,"MEAN_ANOMALY":263.0336,"EPHEMERIS_TYPE":0,"CLASSIFICATION_TYPE":"U","NORAD_CAT_ID":45424,"ELEMENT_SET_NO":999,"REV_AT_EPOCH":28026,"BSTAR":-0.00038663661,"MEAN_MOTION_DOT":-1.24e-6,"MEAN_MOTION_DDOT":0},{"OBJECT_NAME":"ONEWEB-0067","OBJECT_ID":"2020-020B","EPOCH":"2025-12-28T04:52:25.628160","MEAN_MOTION":13.11417816,"ECCENTRICITY":0.00019387,"INCLINATION":87.8856,"RA_OF_ASC_NODE":55.0138,"ARG_OF_PERICENTER":101.2643,"MEAN_ANOMALY":258.8703,"EPHEMERIS_TYPE":0,"CLASSIFICATION_TYPE":"U","NORAD_CAT_ID":45425,"ELEMENT_SET_NO":999,"REV_AT_EPOCH":28032,"BSTAR":0.00029507673,"MEAN_MOTION_DOT":1.17e-6,"MEAN_MOTION_DDOT":0},{"OBJECT_NAME":"ONEWEB-0080","OBJECT_ID":"2020-020C","EPOCH":"2025-12-28T05:05:40.172064","MEAN_MOTION":13.11417337,"ECCENTRICITY":0.00017011,"INCLINATION":87.8844,"RA_OF_ASC_NODE":55.1079,"ARG_OF_PERICENTER":90.7627,"MEAN_ANOMALY":269.3696,"EPHEMERIS_TYPE":0,"CLASSIFICATION_TYPE":"U","NORAD_CAT_ID":45426,"ELEMENT_SET_NO":999,"REV_AT_EPOCH":28029,"BSTAR":0.0014128931,"MEAN_MOTION_DOT":5.13e-6,"MEAN_MOTION_DDOT":0},{"OBJECT_NAME":"ONEWEB-0090","OBJECT_ID":"2020-020D","EPOCH":"2025-12-28T05:33:43.848864","MEAN_MOTION":13.11413897,"ECCENTRICITY":0.00017191,"INCLINATION":87.8846,"RA_OF_ASC_NODE":55.1061,"ARG_OF_PERICENTER":99.3225,"MEAN_ANOMALY":260.8097,"EPHEMERIS_TYPE":0,"CLASSIFICATION_TYPE":"U","NORAD_CAT_ID":45427,"ELEMENT_SET_NO":999,"REV_AT_EPOCH":28026,"BSTAR":0.00082060768,"MEAN_MOTION_DOT":3.04e-6,"MEAN_MOTION_DDOT":0},{"OBJECT_NAME":"ONEWEB-0061","OBJECT_ID":"2020-020E","EPOCH":"2025-12-28T04:30:02.253312","MEAN_MOTION":13.1141691,"ECCENTRICITY":0.00017881,"INCLINATION":87.8849,"RA_OF_ASC_NODE":55.0968,"ARG_OF_PERICENTER":99.7698,"MEAN_ANOMALY":260.3632,"EPHEMERIS_TYPE":0,"CLASSIFICATION_TYPE":"U","NORAD_CAT_ID":45428,"ELEMENT_SET_NO":999,"REV_AT_EPOCH":28021,"BSTAR":-0.0012534709,"MEAN_MOTION_DOT":-4.32e-6,"MEAN_MOTION_DDOT":0},{"OBJECT_NAME":"ONEWEB-0081","OBJECT_ID":"2020-020F","EPOCH":"2025-12-28T04:03:23.570784","MEAN_MOTION":13.11416105,"ECCENTRICITY":0.00019953,"INCLINATION":87.8847,"RA_OF_ASC_NODE":55.1159,"ARG_OF_PERICENTER":99.0523,"MEAN_ANOMALY":261.083,"EPHEMERIS_TYPE":0,"CLASSIFICATION_TYPE":"U","NORAD_CAT_ID":45429,"ELEMENT_SET_NO":999,"REV_AT_EPOCH":28032,"BSTAR":-0.00046138355,"MEAN_MOTION_DOT":-1.51e-6,"MEAN_MOTION_DDOT":0},{"OBJECT_NAME":"ONEWEB-0069","OBJECT_ID":"2020-020G","EPOCH":"2025-12-28T03:47:31.706304","MEAN_MOTION":13.11415249,"ECCENTRICITY":0.00018506,"INCLINATION":87.8848,"RA_OF_ASC_NODE":55.1145,"ARG_OF_PERICENTER":99.9473,"MEAN_ANOMALY":260.1864,"EPHEMERIS_TYPE":0,"CLASSIFICATION_TYPE":"U","NORAD_CAT_ID":45430,"ELEMENT_SET_NO":999,"REV_AT_EPOCH":28025,"BSTAR":0.00053733092,"MEAN_MOTION_DOT":2.03e-6,"MEAN_MOTION_DDOT":0},{"OBJECT_NAME":"ONEWEB-0031","OBJECT_ID":"2020-020H","EPOCH":"2025-12-28T04:57:06.864480","MEAN_MOTION":13.11418109,"ECCENTRICITY":0.00015816,"INCLINATION":87.8841,"RA_OF_ASC_NODE":55.1276,"ARG_OF_PERICENTER":97.2083,"MEAN_ANOMALY":262.9225,"EPHEMERIS_TYPE":0,"CLASSIFICATION_TYPE":"U","NORAD_CAT_ID":45431,"ELEMENT_SET_NO":999,"REV_AT_EPOCH":28024,"BSTAR":0.00063952401,"MEAN_MOTION_DOT":2.39e-6,"MEAN_MOTION_DDOT":0},{"OBJECT_NAME":"ONEWEB-0027","OBJECT_ID":"2020-020J","EPOCH":"2025-12-28T03:29:52.545984","MEAN_MOTION":13.17648034,"ECCENTRICITY":0.0001429,"INCLINATION":87.9104,"RA_OF_ASC_NODE":39.8453,"ARG_OF_PERICENTER":103.676,"MEAN_ANOMALY":256.453,"EPHEMERIS_TYPE":0,"CLASSIFICATION_TYPE":"U","NORAD_CAT_ID":45432,"ELEMENT_SET_NO":999,"REV_AT_EPOCH":28383,"BSTAR":-0.00011960614,"MEAN_MOTION_DOT":-3.4e-7,"MEAN_MOTION_DDOT":0},{"OBJECT_NAME":"ONEWEB-0064","OBJECT_ID":"2020-020K","EPOCH":"2025-12-28T04:54:40.376736","MEAN_MOTION":13.11418286,"ECCENTRICITY":0.00015782,"INCLINATION":87.8843,"RA_OF_ASC_NODE":55.1179,"ARG_OF_PERICENTER":100.0142,"MEAN_ANOMALY":260.1165,"EPHEMERIS_TYPE":0,"CLASSIFICATION_TYPE":"U","NORAD_CAT_ID":45433,"ELEMENT_SET_NO":999,"REV_AT_EPOCH":28027,"BSTAR":0.00045845957,"MEAN_MOTION_DOT":1.75e-6,"MEAN_MOTION_DDOT":0},{"OBJECT_NAME":"ONEWEB-0018","OBJECT_ID":"2020-020L","EPOCH":"2025-12-28T03:51:10.872864","MEAN_MOTION":13.11413783,"ECCENTRICITY":0.00018362,"INCLINATION":87.8848,"RA_OF_ASC_NODE":55.1177,"ARG_OF_PERICENTER":95.2472,"MEAN_ANOMALY":264.8865,"EPHEMERIS_TYPE":0,"CLASSIFICATION_TYPE":"U","NORAD_CAT_ID":45434,"ELEMENT_SET_NO":999,"REV_AT_EPOCH":28021,"BSTAR":0.00014075372,"MEAN_MOTION_DOT":6.3e-7,"MEAN_MOTION_DDOT":0},{"OBJECT_NAME":"ONEWEB-0083","OBJECT_ID":"2020-020M","EPOCH":"2025-12-28T03:37:46.178688","MEAN_MOTION":13.11414244,"ECCENTRICITY":0.00017264,"INCLINATION":87.8848,"RA_OF_ASC_NODE":55.1082,"ARG_OF_PERICENTER":98.8323,"MEAN_ANOMALY":261.3001,"EPHEMERIS_TYPE":0,"CLASSIFICATION_TYPE":"U","NORAD_CAT_ID":45435,"ELEMENT_SET_NO":999,"REV_AT_EPOCH":28025,"BSTAR":0.0013369937,"MEAN_MOTION_DOT":4.87e-6,"MEAN_MOTION_DDOT":0}]
