ONEWEB-0057             
1 45160U 20008AF  25362.18316469  .00000668  00000+0  18778-2 0  9994
2 45160  87.8796  70.3640 0001979 106.3123 253.8222 13.10373861285951
ONEWEB-0058             
1 45161U 20008AG  25362.24624491  .00000189  00000+0  50630-3 0  9991
2 45161  87.8797  70.3617 0001565  95.7788 264.3518 13.10375503286036
ONEWEB-0059             
1 45162U 20008AH  25362.24276892  .00000064  00000+0  14847-3 0  9992
2 45162  87.8799  70.3627 0001750  99.2337 260.8988 13.10378250285937
ONEWEB-0062             
1 45163U 20008AJ  25362.19215694  .00000574  00000+0  16078-2 0  9993
2 45163  87.8799  70.3496 0001420  93.4944 266.6346 13.10370355285790
ONEWEB-0065             
1 45164U 20008AK  25362.22270881 -.00000603  00000+0 -17636-2 0  9993
2 45164  87.8796  70.3585 0001970 113.1786 246.9549 13.10375291285498
ONEWEB-0066             
1 45424U 20020A   25362.16563668 -.00000124  00000+0 -38664-3 0  9990
2 45424  87.8846  55.1169 0001977  97.1016 263.0336 13.11415988280269
ONEWEB-0067             
1 45425U 20020B   25362.20307440  .00000117  00000+0  29508-3 0  9997
2 45425  87.8856  55.0138 0001938 101.2643 258.8703 13.11417816280325
ONEWEB-0080             
1 45426U 20020C   25362.21227051  .00000513  00000+0  14129-2 0  9990
2 45426  87.8844  55.1079 0001701  90.7627 269.3696 13.11417337280292
ONEWEB-0090             
1 45427U 20020D   25362.23175751  .00000304  00000+0  82061-3 0  9991
2 45427  87.8846  55.1061 0001719  99.3225 260.8097 13.11413897280269
ONEWEB-0061             
1 45428U 20020E   25362.18752608 -.00000432  00000+0 -12535-2 0  9990
2 45428  87.8849  55.0968 0001788  99.7698 260.3632 13.11416910280216
ONEWEB-0081             
1 45429U 20020F   25362.16902281 -.00000151  00000+0 -46138-3 0  9998
2 45429  87.8847  55.1159 0001995  99.0523 261.0830 13.11416105280324
ONEWEB-0069             
1 45430U 20020G   25362.15800586  .00000203  00000+0  53733-3 0  9999
2 45430  87.8848  55.1145 0001850  99.9473 260.1864 13.11415249280252
ONEWEB-0031             
1 45431U 20020H   25362.20632945  .00000239  00000+0  63952-3 0  9991
2 45431  87.8841  55.1276 0001581  97.2083 262.9225 13.11418109280248
ONEWEB-0027             
1 45432U 20020J   25362.14574706 -.00000034  00000+0 -11961-3 0  9993
2 45432  87.9104  39.8453 0001429 103.6760 256.4530 13.17648034283836
ONEWEB-0064             
1 45433U 20020K   25362.20463399  .00000175  00000+0  45846-3 0  9999
2 45433  87.8843  55.1179 0001578 100.0142 260.1165 13.11418286280271
ONEWEB-0018             
1 45434U 20020L   25362.16054251  .00000063  00000+0  14075-3 0  9994
2 45434  87.8848  55.1177 0001836  95.2472 264.8865 13.11413783280212
ONEWEB-0083             
1 45435U 20020M   25362.15122892  .00000487  00000+0  13370-2 0  9997
2 45435  87.8848  55.1082 0001726  98.8323 261.3001 13.11414244280251
